[{"OBJECT_NAME":"STARLINK-4505","OBJECT_ID":"2022-101AF","EPOCH":"2026-03-09T23:35:19.635360","MEAN_MOTION":15.08841872,"ECCENTRICITY":0.00013518,"INCLINATION":53.2169,"RA_OF_ASC_NODE":62.8018,"ARG_OF_PERICENTER":88.6158,"MEAN_ANOMALY":271.4989,"EPHEMERIS_TYPE":0,"CLASSIFICATION_TYPE":"U","NORAD_CAT_ID":53556,"ELEMENT_SET_NO":999,"REV_AT_EPOCH":19635,"BSTAR":2.8362219e-5,"MEAN_MOTION_DOT":1.64e-6,"MEAN_MOTION_DDOT":0},{"OBJECT_NAME":"UNKNOWN","OBJECT_ID":"","EPOCH":"2026-03-09T15:39:14.183136","MEAN_MOTION":14.19674453,"ECCENTRICITY":0.0427747,"INCLINATION":65.8963,"RA_OF_ASC_NODE":273.9524,"ARG_OF_PERICENTER":312.8567,"MEAN_ANOMALY":43.7312,"EPHEMERIS_TYPE":0,"CLASSIFICATION_TYPE":"U","NORAD_CAT_ID":87293,"ELEMENT_SET_NO":999,"REV_AT_EPOCH":62632,"BSTAR":0.00094722,"MEAN_MOTION_DOT":4.963e-5,"MEAN_MOTION_DDOT":0}]
